{
    "links": {
        "self": "http://www.neowsapp.com/rest/v1/neo/3797453?api_key=iIulBulltgU6a56xZRHN4H3l9WmuAYTsLGpBGhQ2"
    },
    "id": "3797453",
    "neo_reference_id": "3797453",
    "name": "(2018 AO2)",
    "designation": "2018 AO2",
    "nasa_jpl_url": "http://ssd.jpl.nasa.gov/sbdb.cgi?sstr=3797453",
    "absolute_magnitude_h": 24.3,
    "estimated_diameter": {
        "kilometers": {
            "estimated_diameter_min": 0.0366906138,
            "estimated_diameter_max": 0.0820427065
        },
        "meters": {
            "estimated_diameter_min": 36.6906137531,
            "estimated_diameter_max": 82.0427064882
        },
        "miles": {
            "estimated_diameter_min": 0.0227984834,
            "estimated_diameter_max": 0.0509789586
        },
        "feet": {
            "estimated_diameter_min": 120.3760332259,
            "estimated_diameter_max": 269.1689931548
        }
    },
    "is_potentially_hazardous_asteroid": false,
    "close_approach_data": [
        {
            "close_approach_date": "2008-07-08",
            "close_approach_date_full": "2008-Jul-08 00:06",
            "epoch_date_close_approach": 1215475560000,
            "relative_velocity": {
                "kilometers_per_second": "18.936329993",
                "kilometers_per_hour": "68170.7879748454",
                "miles_per_hour": "42358.6765613699"
            },
            "miss_distance": {
                "astronomical": "0.2634255408",
                "lunar": "102.4725353712",
                "kilometers": "39407899.807278096",
                "miles": "24486933.4660498848"
            },
            "orbiting_body": "Earth"
        },
        {
            "close_approach_date": "2018-01-18",
            "close_approach_date_full": "2018-Jan-18 19:15",
            "epoch_date_close_approach": 1516302900000,
            "relative_velocity": {
                "kilometers_per_second": "18.2844203634",
                "kilometers_per_hour": "65823.9133083336",
                "miles_per_hour": "40900.4199109476"
            },
            "miss_distance": {
                "astronomical": "0.1148222248",
                "lunar": "44.6658454472",
                "kilometers": "17177160.258741176",
                "miles": "10673392.4529971888"
            },
            "orbiting_body": "Earth"
        },
        {
            "close_approach_date": "2018-07-09",
            "close_approach_date_full": "2018-Jul-09 14:52",
            "epoch_date_close_approach": 1531147920000,
            "relative_velocity": {
                "kilometers_per_second": "16.7069150584",
                "kilometers_per_hour": "60144.8942102364",
                "miles_per_hour": "37371.6982941327"
            },
            "miss_distance": {
                "astronomical": "0.2582540328",
                "lunar": "100.4608187592",
                "kilometers": "38634253.225790136",
                "miles": "24006211.7716744368"
            },
            "orbiting_body": "Earth"
        }
    ],
    "orbital_data": {
        "orbit_id": "5",
        "orbit_determination_date": "2018-02-04 07:23:36",
        "first_observation_date": "2018-01-11",
        "last_observation_date": "2018-01-28",
        "data_arc_in_days": 17,
        "observations_used": 36,
        "orbit_uncertainty": "8",
        "minimum_orbit_intersection": ".112999",
        "jupiter_tisserand_invariant": "4.911",
        "epoch_osculation": "2458131.5",
        "eccentricity": ".2502727515533854",
        "semi_major_axis": "1.264500093030311",
        "inclination": "33.51672488510014",
        "ascending_node_longitude": "294.3886327393265",
        "orbital_period": "519.3698387256626",
        "perihelion_distance": ".948030175408103",
        "perihelion_argument": "253.4862959860284",
        "aphelion_distance": "1.580970010652518",
        "perihelion_time": "2458202.006299031765",
        "mean_anomaly": "311.1287222344026",
        "mean_motion": ".6931476823592684",
        "equinox": "J2000",
        "orbit_class": {
            "orbit_class_type": "APO",
            "orbit_class_description": "Near-Earth asteroid orbits which cross the Earth’s orbit similar to that of 1862 Apollo",
            "orbit_class_range": "a (semi-major axis) > 1.0 AU; q (perihelion) < 1.017 AU"
        }
    },
    "is_sentry_object": false
}